{
  "type": "FeatureCollection",
  "features": [
    {
      "type": "Feature",
      "properties": {
        "norad_id": 34924,
        "name": "COSMOS 2251 DEB",
        "group": "cosmos-2251-debris",
        "lat": -63.55609555200145,
        "lon": -63.06653007963001,
        "alt_km": 695.0146669229507,
        "timestamp": "2025-12-16T17:51:11.327861+00:00",
        "meta_object_name": "COSMOS 2251 DEB",
        "meta_object_id": "1993-036ADV",
        "meta_epoch": "2025-12-15T23:11:46.077792",
        "meta_mean_motion": 14.60064145,
        "meta_eccentricity": 0.00541137,
        "meta_inclination": 74.0411,
        "meta_ra_of_asc_node": 83.2915,
        "meta_arg_of_pericenter": 167.1484,
        "meta_mean_anomaly": 316.438,
        "meta_ephemeris_type": 0,
        "meta_classification_type": "U",
        "meta_norad_cat_id": 34924,
        "meta_element_set_no": 999,
        "meta_rev_at_epoch": 87770,
        "meta_bstar": 0.00064984297,
        "meta_mean_motion_dot": 3.158e-05,
        "meta_mean_motion_ddot": 0,
        "tle_line1": "1 34924U 93036ADV 25349.96650553  .00003158  00000+0  64984-3 0  9995",
        "tle_line2": "2 34924  74.0411  83.2915 0054113 167.1484 316.4380 14.60064145877709"
      },
      "geometry": {
        "type": "Point",
        "coordinates": [
          -63.06653007963001,
          -63.55609555200145
        ]
      }
    },
    {
      "type": "Feature",
      "properties": {
        "norad_id": 34944,
        "name": "COSMOS 2251 DEB",
        "group": "cosmos-2251-debris",
        "lat": 49.48668316721943,
        "lon": -115.22137752565725,
        "alt_km": 690.244541527758,
        "timestamp": "2025-12-16T17:51:11.327872+00:00",
        "meta_object_name": "COSMOS 2251 DEB",
        "meta_object_id": "1993-036ADX",
        "meta_epoch": "2025-12-07T09:30:46.029312",
        "meta_mean_motion": 14.14167925,
        "meta_eccentricity": 0.02195348,
        "meta_inclination": 73.7495,
        "meta_ra_of_asc_node": 241.6775,
        "meta_arg_of_pericenter": 90.2413,
        "meta_mean_anomaly": 272.3884,
        "meta_ephemeris_type": 0,
        "meta_classification_type": "U",
        "meta_norad_cat_id": 34944,
        "meta_element_set_no": 999,
        "meta_rev_at_epoch": 64007,
        "meta_bstar": 0.00099492053,
        "meta_mean_motion_dot": 2.364e-05,
        "meta_mean_motion_ddot": 0,
        "tle_line1": "1 34944U 93036ADX 25341.39636608  .00002364  00000+0  99492-3 0  9991",
        "tle_line2": "2 34944  73.7495 241.6775 0219534  90.2413 272.3884 14.14167925640077"
      },
      "geometry": {
        "type": "Point",
        "coordinates": [
          -115.22137752565725,
          49.48668316721943
        ]
      }
    },
    {
      "type": "Feature",
      "properties": {
        "norad_id": 34946,
        "name": "COSMOS 2251 DEB",
        "group": "cosmos-2251-debris",
        "lat": 55.49427632768689,
        "lon": 129.81700963969425,
        "alt_km": 647.1167761255365,
        "timestamp": "2025-12-16T17:51:11.327882+00:00",
        "meta_object_name": "COSMOS 2251 DEB",
        "meta_object_id": "1993-036ADZ",
        "meta_epoch": "2025-12-11T09:12:32.820480",
        "meta_mean_motion": 14.61985522,
        "meta_eccentricity": 0.0048688,
        "meta_inclination": 74.0237,
        "meta_ra_of_asc_node": 344.7115,
        "meta_arg_of_pericenter": 122.3418,
        "meta_mean_anomaly": 238.2476,
        "meta_ephemeris_type": 0,
        "meta_classification_type": "U",
        "meta_norad_cat_id": 34946,
        "meta_element_set_no": 999,
        "meta_rev_at_epoch": 88189,
        "meta_bstar": 0.00095647955,
        "meta_mean_motion_dot": 4.849e-05,
        "meta_mean_motion_ddot": 0,
        "tle_line1": "1 34946U 93036ADZ 25345.38371320  .00004849  00000+0  95648-3 0  9992",
        "tle_line2": "2 34946  74.0237 344.7115 0048688 122.3418 238.2476 14.61985522881890"
      },
      "geometry": {
        "type": "Point",
        "coordinates": [
          129.81700963969425,
          55.49427632768689
        ]
      }
    },
    {
      "type": "Feature",
      "properties": {
        "norad_id": 34949,
        "name": "COSMOS 2251 DEB",
        "group": "cosmos-2251-debris",
        "lat": -10.320659391080522,
        "lon": -75.17276338234616,
        "alt_km": 619.9682167417623,
        "timestamp": "2025-12-16T17:51:11.327892+00:00",
        "meta_object_name": "COSMOS 2251 DEB",
        "meta_object_id": "1993-036AEC",
        "meta_epoch": "2025-12-15T00:15:42.913440",
        "meta_mean_motion": 14.74016765,
        "meta_eccentricity": 0.00803095,
        "meta_inclination": 74.0181,
        "meta_ra_of_asc_node": 105.2196,
        "meta_arg_of_pericenter": 250.0673,
        "meta_mean_anomaly": 109.1837,
        "meta_ephemeris_type": 0,
        "meta_classification_type": "U",
        "meta_norad_cat_id": 34949,
        "meta_element_set_no": 999,
        "meta_rev_at_epoch": 88395,
        "meta_bstar": 0.00039146284,
        "meta_mean_motion_dot": 2.675e-05,
        "meta_mean_motion_ddot": 0,
        "tle_line1": "1 34949U 93036AEC 25349.01091335  .00002675  00000+0  39146-3 0  9990",
        "tle_line2": "2 34949  74.0181 105.2196 0080309 250.0673 109.1837 14.74016765883952"
      },
      "geometry": {
        "type": "Point",
        "coordinates": [
          -75.17276338234616,
          -10.320659391080522
        ]
      }
    },
    {
      "type": "Feature",
      "properties": {
        "norad_id": 34953,
        "name": "COSMOS 2251 DEB",
        "group": "cosmos-2251-debris",
        "lat": 73.40235202597381,
        "lon": 126.68039135376947,
        "alt_km": 652.4618222123981,
        "timestamp": "2025-12-16T17:51:11.327902+00:00",
        "meta_object_name": "COSMOS 2251 DEB",
        "meta_object_id": "1993-036AEG",
        "meta_epoch": "2025-12-15T20:58:44.435424",
        "meta_mean_motion": 14.68987416,
        "meta_eccentricity": 0.00581924,
        "meta_inclination": 74.0933,
        "meta_ra_of_asc_node": 21.443,
        "meta_arg_of_pericenter": 12.5608,
        "meta_mean_anomaly": 163.8642,
        "meta_ephemeris_type": 0,
        "meta_classification_type": "U",
        "meta_norad_cat_id": 34953,
        "meta_element_set_no": 999,
        "meta_rev_at_epoch": 88174,
        "meta_bstar": 0.0005270651,
        "meta_mean_motion_dot": 3.138e-05,
        "meta_mean_motion_ddot": 0,
        "tle_line1": "1 34953U 93036AEG 25349.87412541  .00003138  00000+0  52707-3 0  9998",
        "tle_line2": "2 34953  74.0933  21.4430 0058192  12.5608 163.8642 14.68987416881745"
      },
      "geometry": {
        "type": "Point",
        "coordinates": [
          126.68039135376947,
          73.40235202597381
        ]
      }
    },
    {
      "type": "Feature",
      "properties": {
        "norad_id": 34955,
        "name": "COSMOS 2251 DEB",
        "group": "cosmos-2251-debris",
        "lat": -34.83865353378504,
        "lon": -133.12772285363977,
        "alt_km": 518.8793722234559,
        "timestamp": "2025-12-16T17:51:11.327912+00:00",
        "meta_object_name": "COSMOS 2251 DEB",
        "meta_object_id": "1993-036AEJ",
        "meta_epoch": "2025-12-11T10:00:38.398176",
        "meta_mean_motion": 15.00495775,
        "meta_eccentricity": 0.00779991,
        "meta_inclination": 74.0375,
        "meta_ra_of_asc_node": 249.1952,
        "meta_arg_of_pericenter": 319.1032,
        "meta_mean_anomaly": 40.4318,
        "meta_ephemeris_type": 0,
        "meta_classification_type": "U",
        "meta_norad_cat_id": 34955,
        "meta_element_set_no": 999,
        "meta_rev_at_epoch": 90014,
        "meta_bstar": 0.0014966224,
        "meta_mean_motion_dot": 0.00020131,
        "meta_mean_motion_ddot": 0,
        "tle_line1": "1 34955U 93036AEJ 25345.41711109  .00020131  00000+0  14966-2 0  9994",
        "tle_line2": "2 34955  74.0375 249.1952 0077999 319.1032  40.4318 15.00495775900143"
      },
      "geometry": {
        "type": "Point",
        "coordinates": [
          -133.12772285363977,
          -34.83865353378504
        ]
      }
    },
    {
      "type": "Feature",
      "properties": {
        "norad_id": 34962,
        "name": "COSMOS 2251 DEB",
        "group": "cosmos-2251-debris",
        "lat": 51.39686818697157,
        "lon": -153.09399058183598,
        "alt_km": 737.6944194439893,
        "timestamp": "2025-12-16T17:51:11.327923+00:00",
        "meta_object_name": "COSMOS 2251 DEB",
        "meta_object_id": "1993-036AER",
        "meta_epoch": "2025-12-15T06:44:47.391648",
        "meta_mean_motion": 14.46525173,
        "meta_eccentricity": 0.00187713,
        "meta_inclination": 74.0293,
        "meta_ra_of_asc_node": 188.6171,
        "meta_arg_of_pericenter": 301.721,
        "meta_mean_anomaly": 58.2118,
        "meta_ephemeris_type": 0,
        "meta_classification_type": "U",
        "meta_norad_cat_id": 34962,
        "meta_element_set_no": 999,
        "meta_rev_at_epoch": 87615,
        "meta_bstar": 0.00035414962,
        "meta_mean_motion_dot": 1.251e-05,
        "meta_mean_motion_ddot": 0,
        "tle_line1": "1 34962U 93036AER 25349.28110407  .00001251  00000+0  35415-3 0  9990",
        "tle_line2": "2 34962  74.0293 188.6171 0018771 301.7210  58.2118 14.46525173876151"
      },
      "geometry": {
        "type": "Point",
        "coordinates": [
          -153.09399058183598,
          51.39686818697157
        ]
      }
    }
  ]
}